{
  "type": "FeatureCollection",
  "features": [
    {
      "type": "Feature",
      "properties": {
        "norad_id": 31620,
        "name": "FENGYUN 1C DEB",
        "group": "fengyun-1c-debris",
        "lat": -12.188905186547572,
        "lon": 75.26513541731715,
        "alt_km": 762.4890136938548,
        "timestamp": "2025-12-15T04:01:20.735007+00:00",
        "meta_object_name": "FENGYUN 1C DEB",
        "meta_object_id": "1999-025CAA",
        "meta_epoch": "2025-12-07T23:58:44.073408",
        "meta_mean_motion": 14.37123121,
        "meta_eccentricity": 0.00207062,
        "meta_inclination": 98.8866,
        "meta_ra_of_asc_node": 65.9275,
        "meta_arg_of_pericenter": 59.0655,
        "meta_mean_anomaly": 301.2562,
        "meta_ephemeris_type": 0,
        "meta_classification_type": "U",
        "meta_norad_cat_id": 31620,
        "meta_element_set_no": 999,
        "meta_rev_at_epoch": 65776,
        "meta_bstar": 0.0029103432,
        "meta_mean_motion_dot": 8.633e-05,
        "meta_mean_motion_ddot": 0,
        "tle_line1": "1 31620U 99025CAA 25341.99912122  .00008633  00000+0  29103-2 0  9993",
        "tle_line2": "2 31620  98.8866  65.9275 0020706  59.0655 301.2562 14.37123121657763"
      },
      "geometry": {
        "type": "Point",
        "coordinates": [
          75.26513541731715,
          -12.188905186547572
        ]
      }
    },
    {
      "type": "Feature",
      "properties": {
        "norad_id": 31622,
        "name": "FENGYUN 1C DEB",
        "group": "fengyun-1c-debris",
        "lat": -26.85773655325717,
        "lon": 88.50688470624092,
        "alt_km": 762.6503033207127,
        "timestamp": "2025-12-15T04:01:20.735017+00:00",
        "meta_object_name": "FENGYUN 1C DEB",
        "meta_object_id": "1999-025CAC",
        "meta_epoch": "2025-12-14T05:03:46.525824",
        "meta_mean_motion": 14.37204764,
        "meta_eccentricity": 0.00150425,
        "meta_inclination": 98.816,
        "meta_ra_of_asc_node": 83.0194,
        "meta_arg_of_pericenter": 337.6158,
        "meta_mean_anomaly": 88.4729,
        "meta_ephemeris_type": 0,
        "meta_classification_type": "U",
        "meta_norad_cat_id": 31622,
        "meta_element_set_no": 999,
        "meta_rev_at_epoch": 95793,
        "meta_bstar": 0.0021461794,
        "meta_mean_motion_dot": 6.355e-05,
        "meta_mean_motion_ddot": 0,
        "tle_line1": "1 31622U 99025CAC 25348.21095516  .00006355  00000+0  21462-2 0  9995",
        "tle_line2": "2 31622  98.8160  83.0194 0015042 337.6158  88.4729 14.37204764957937"
      },
      "geometry": {
        "type": "Point",
        "coordinates": [
          88.50688470624092,
          -26.85773655325717
        ]
      }
    },
    {
      "type": "Feature",
      "properties": {
        "norad_id": 31623,
        "name": "FENGYUN 1C DEB",
        "group": "fengyun-1c-debris",
        "lat": 28.25576184667248,
        "lon": 24.421041687729243,
        "alt_km": 1079.075480806423,
        "timestamp": "2025-12-15T04:01:20.735027+00:00",
        "meta_object_name": "FENGYUN 1C DEB",
        "meta_object_id": "1999-025CAD",
        "meta_epoch": "2025-12-02T20:02:22.350624",
        "meta_mean_motion": 13.82580933,
        "meta_eccentricity": 0.01951152,
        "meta_inclination": 97.6304,
        "meta_ra_of_asc_node": 190.283,
        "meta_arg_of_pericenter": 33.7651,
        "meta_mean_anomaly": 327.5758,
        "meta_ephemeris_type": 0,
        "meta_classification_type": "U",
        "meta_norad_cat_id": 31623,
        "meta_element_set_no": 999,
        "meta_rev_at_epoch": 57783,
        "meta_bstar": 0.00047153491,
        "meta_mean_motion_dot": 5.61e-06,
        "meta_mean_motion_ddot": 0,
        "tle_line1": "1 31623U 99025CAD 25336.83498091  .00000561  00000+0  47153-3 0  9995",
        "tle_line2": "2 31623  97.6304 190.2830 0195115  33.7651 327.5758 13.82580933577835"
      },
      "geometry": {
        "type": "Point",
        "coordinates": [
          24.421041687729243,
          28.25576184667248
        ]
      }
    },
    {
      "type": "Feature",
      "properties": {
        "norad_id": 31625,
        "name": "FENGYUN 1C DEB",
        "group": "fengyun-1c-debris",
        "lat": 64.73380653592088,
        "lon": -85.50171131966259,
        "alt_km": 728.2064126983078,
        "timestamp": "2025-12-15T04:01:20.735048+00:00",
        "meta_object_name": "FENGYUN 1C DEB",
        "meta_object_id": "1999-025CAF",
        "meta_epoch": "2025-12-14T04:32:01.404096",
        "meta_mean_motion": 14.55401369,
        "meta_eccentricity": 0.01492348,
        "meta_inclination": 98.8061,
        "meta_ra_of_asc_node": 74.2921,
        "meta_arg_of_pericenter": 11.3756,
        "meta_mean_anomaly": 15.8535,
        "meta_ephemeris_type": 0,
        "meta_classification_type": "U",
        "meta_norad_cat_id": 31625,
        "meta_element_set_no": 999,
        "meta_rev_at_epoch": 98414,
        "meta_bstar": 0.00019660891,
        "meta_mean_motion_dot": 9.32e-06,
        "meta_mean_motion_ddot": 0,
        "tle_line1": "1 31625U 99025CAF 25348.18890514  .00000932  00000+0  19661-3 0  9999",
        "tle_line2": "2 31625  98.8061  74.2921 0149234  11.3756  15.8535 14.55401369984143"
      },
      "geometry": {
        "type": "Point",
        "coordinates": [
          -85.50171131966259,
          64.73380653592088
        ]
      }
    },
    {
      "type": "Feature",
      "properties": {
        "norad_id": 31627,
        "name": "FENGYUN 1C DEB",
        "group": "fengyun-1c-debris",
        "lat": 8.203303855601522,
        "lon": -141.74639061444174,
        "alt_km": 741.7005334000969,
        "timestamp": "2025-12-15T04:01:20.735060+00:00",
        "meta_object_name": "FENGYUN 1C DEB",
        "meta_object_id": "1999-025CAH",
        "meta_epoch": "2025-11-26T09:13:22.975680",
        "meta_mean_motion": 14.35408996,
        "meta_eccentricity": 0.00515931,
        "meta_inclination": 98.5313,
        "meta_ra_of_asc_node": 18.4415,
        "meta_arg_of_pericenter": 201.9005,
        "meta_mean_anomaly": 157.9975,
        "meta_ephemeris_type": 0,
        "meta_classification_type": "U",
        "meta_norad_cat_id": 31627,
        "meta_element_set_no": 999,
        "meta_rev_at_epoch": 64532,
        "meta_bstar": 0.0013473839,
        "meta_mean_motion_dot": 3.885e-05,
        "meta_mean_motion_ddot": 0,
        "tle_line1": "1 31627U 99025CAH 25330.38429370  .00003885  00000+0  13474-2 0  9997",
        "tle_line2": "2 31627  98.5313  18.4415 0051593 201.9005 157.9975 14.35408996645325"
      },
      "geometry": {
        "type": "Point",
        "coordinates": [
          -141.74639061444174,
          8.203303855601522
        ]
      }
    },
    {
      "type": "Feature",
      "properties": {
        "norad_id": 31628,
        "name": "FENGYUN 1C DEB",
        "group": "fengyun-1c-debris",
        "lat": 66.2882903137792,
        "lon": 175.04550190095654,
        "alt_km": 1033.403255676265,
        "timestamp": "2025-12-15T04:01:20.735075+00:00",
        "meta_object_name": "FENGYUN 1C DEB",
        "meta_object_id": "1999-025CAJ",
        "meta_epoch": "2025-12-11T07:54:48.314304",
        "meta_mean_motion": 13.86824838,
        "meta_eccentricity": 0.01689763,
        "meta_inclination": 102.2698,
        "meta_ra_of_asc_node": 199.7269,
        "meta_arg_of_pericenter": 223.5852,
        "meta_mean_anomaly": 135.1839,
        "meta_ephemeris_type": 0,
        "meta_classification_type": "U",
        "meta_norad_cat_id": 31628,
        "meta_element_set_no": 999,
        "meta_rev_at_epoch": 93280,
        "meta_bstar": 0.0035626091,
        "meta_mean_motion_dot": 4.587e-05,
        "meta_mean_motion_ddot": 0,
        "tle_line1": "1 31628U 99025CAJ 25345.32972586  .00004587  00000+0  35626-2 0  9993",
        "tle_line2": "2 31628 102.2698 199.7269 0168976 223.5852 135.1839 13.86824838932800"
      },
      "geometry": {
        "type": "Point",
        "coordinates": [
          175.04550190095654,
          66.2882903137792
        ]
      }
    },
    {
      "type": "Feature",
      "properties": {
        "norad_id": 31629,
        "name": "FENGYUN 1C DEB",
        "group": "fengyun-1c-debris",
        "lat": -22.847245927415955,
        "lon": -149.2444471585179,
        "alt_km": 923.5614183624475,
        "timestamp": "2025-12-15T04:01:20.735085+00:00",
        "meta_object_name": "FENGYUN 1C DEB",
        "meta_object_id": "1999-025CAK",
        "meta_epoch": "2025-12-11T09:06:19.184544",
        "meta_mean_motion": 14.14603971,
        "meta_eccentricity": 0.01037698,
        "meta_inclination": 102.1333,
        "meta_ra_of_asc_node": 30.8256,
        "meta_arg_of_pericenter": 30.7835,
        "meta_mean_anomaly": 329.9357,
        "meta_ephemeris_type": 0,
        "meta_classification_type": "U",
        "meta_norad_cat_id": 31629,
        "meta_element_set_no": 999,
        "meta_rev_at_epoch": 94427,
        "meta_bstar": 0.0036724115,
        "meta_mean_motion_dot": 7.369e-05,
        "meta_mean_motion_ddot": 0,
        "tle_line1": "1 31629U 99025CAK 25345.37938871  .00007369  00000+0  36724-2 0  9999",
        "tle_line2": "2 31629 102.1333  30.8256 0103769  30.7835 329.9357 14.14603971944272"
      },
      "geometry": {
        "type": "Point",
        "coordinates": [
          -149.2444471585179,
          -22.847245927415955
        ]
      }
    }
  ]
}